<?xml version="1.0" encoding="UTF-8"?>
<gpx version="1.1" creator="Xcode">
  <!-- Xcode-compatible waypoint route: exact A to B over 10 seconds. -->
  <wpt lat="22.627351377625363" lon="88.433475156341359">
    <name>Point A</name>
    <time>2026-08-26T12:00:00.000Z</time>
  </wpt>
  <wpt lat="22.627316045234764" lon="88.433554267319039">
    <name>Route 1</name>
    <time>2026-08-26T12:00:00.100Z</time>
  </wpt>
  <wpt lat="22.627280712844161" lon="88.433633378296733">
    <name>Route 2</name>
    <time>2026-08-26T12:00:00.200Z</time>
  </wpt>
  <wpt lat="22.627245380453559" lon="88.433712489274413">
    <name>Route 3</name>
    <time>2026-08-26T12:00:00.300Z</time>
  </wpt>
  <wpt lat="22.627210048062960" lon="88.433791600252107">
    <name>Route 4</name>
    <time>2026-08-26T12:00:00.400Z</time>
  </wpt>
  <wpt lat="22.627174715672361" lon="88.433870711229787">
    <name>Route 5</name>
    <time>2026-08-26T12:00:00.500Z</time>
  </wpt>
  <wpt lat="22.627139383281758" lon="88.433949822207481">
    <name>Route 6</name>
    <time>2026-08-26T12:00:00.600Z</time>
  </wpt>
  <wpt lat="22.627104050891155" lon="88.434028933185161">
    <name>Route 7</name>
    <time>2026-08-26T12:00:00.700Z</time>
  </wpt>
  <wpt lat="22.627068718500556" lon="88.434108044162855">
    <name>Route 8</name>
    <time>2026-08-26T12:00:00.800Z</time>
  </wpt>
  <wpt lat="22.627033386109957" lon="88.434187155140535">
    <name>Route 9</name>
    <time>2026-08-26T12:00:00.900Z</time>
  </wpt>
  <wpt lat="22.626998053719355" lon="88.434266266118229">
    <name>Route 10</name>
    <time>2026-08-26T12:00:01.000Z</time>
  </wpt>
  <wpt lat="22.626962721328752" lon="88.434345377095909">
    <name>Route 11</name>
    <time>2026-08-26T12:00:01.100Z</time>
  </wpt>
  <wpt lat="22.626927388938153" lon="88.434424488073603">
    <name>Route 12</name>
    <time>2026-08-26T12:00:01.200Z</time>
  </wpt>
  <wpt lat="22.626892056547554" lon="88.434503599051283">
    <name>Route 13</name>
    <time>2026-08-26T12:00:01.300Z</time>
  </wpt>
  <wpt lat="22.626856724156951" lon="88.434582710028963">
    <name>Route 14</name>
    <time>2026-08-26T12:00:01.400Z</time>
  </wpt>
  <wpt lat="22.626821391766349" lon="88.434661821006657">
    <name>Route 15</name>
    <time>2026-08-26T12:00:01.500Z</time>
  </wpt>
  <wpt lat="22.626786059375750" lon="88.434740931984336">
    <name>Route 16</name>
    <time>2026-08-26T12:00:01.600Z</time>
  </wpt>
  <wpt lat="22.626750726985151" lon="88.434820042962031">
    <name>Route 17</name>
    <time>2026-08-26T12:00:01.700Z</time>
  </wpt>
  <wpt lat="22.626715394594548" lon="88.434899153939710">
    <name>Route 18</name>
    <time>2026-08-26T12:00:01.800Z</time>
  </wpt>
  <wpt lat="22.626680062203945" lon="88.434978264917405">
    <name>Route 19</name>
    <time>2026-08-26T12:00:01.900Z</time>
  </wpt>
  <wpt lat="22.626644729813346" lon="88.435057375895084">
    <name>Route 20</name>
    <time>2026-08-26T12:00:02.000Z</time>
  </wpt>
  <wpt lat="22.626609397422747" lon="88.435136486872779">
    <name>Route 21</name>
    <time>2026-08-26T12:00:02.100Z</time>
  </wpt>
  <wpt lat="22.626574065032145" lon="88.435215597850458">
    <name>Route 22</name>
    <time>2026-08-26T12:00:02.200Z</time>
  </wpt>
  <wpt lat="22.626538732641542" lon="88.435294708828152">
    <name>Route 23</name>
    <time>2026-08-26T12:00:02.300Z</time>
  </wpt>
  <wpt lat="22.626503400250943" lon="88.435373819805832">
    <name>Route 24</name>
    <time>2026-08-26T12:00:02.400Z</time>
  </wpt>
  <wpt lat="22.626468067860344" lon="88.435452930783526">
    <name>Route 25</name>
    <time>2026-08-26T12:00:02.500Z</time>
  </wpt>
  <wpt lat="22.626432735469741" lon="88.435532041761206">
    <name>Route 26</name>
    <time>2026-08-26T12:00:02.600Z</time>
  </wpt>
  <wpt lat="22.626397403079139" lon="88.435611152738886">
    <name>Route 27</name>
    <time>2026-08-26T12:00:02.700Z</time>
  </wpt>
  <wpt lat="22.626362070688540" lon="88.435690263716580">
    <name>Route 28</name>
    <time>2026-08-26T12:00:02.800Z</time>
  </wpt>
  <wpt lat="22.626326738297941" lon="88.435769374694260">
    <name>Route 29</name>
    <time>2026-08-26T12:00:02.900Z</time>
  </wpt>
  <wpt lat="22.626291405907338" lon="88.435848485671954">
    <name>Route 30</name>
    <time>2026-08-26T12:00:03.000Z</time>
  </wpt>
  <wpt lat="22.626256073516736" lon="88.435927596649634">
    <name>Route 31</name>
    <time>2026-08-26T12:00:03.100Z</time>
  </wpt>
  <wpt lat="22.626220741126136" lon="88.436006707627328">
    <name>Route 32</name>
    <time>2026-08-26T12:00:03.200Z</time>
  </wpt>
  <wpt lat="22.626185408735537" lon="88.436085818605008">
    <name>Route 33</name>
    <time>2026-08-26T12:00:03.300Z</time>
  </wpt>
  <wpt lat="22.626150076344935" lon="88.436164929582702">
    <name>Route 34</name>
    <time>2026-08-26T12:00:03.400Z</time>
  </wpt>
  <wpt lat="22.626114743954332" lon="88.436244040560382">
    <name>Route 35</name>
    <time>2026-08-26T12:00:03.500Z</time>
  </wpt>
  <wpt lat="22.626079411563733" lon="88.436323151538076">
    <name>Route 36</name>
    <time>2026-08-26T12:00:03.600Z</time>
  </wpt>
  <wpt lat="22.626044079173134" lon="88.436402262515756">
    <name>Route 37</name>
    <time>2026-08-26T12:00:03.700Z</time>
  </wpt>
  <wpt lat="22.626008746782531" lon="88.436481373493436">
    <name>Route 38</name>
    <time>2026-08-26T12:00:03.800Z</time>
  </wpt>
  <wpt lat="22.625973414391929" lon="88.436560484471130">
    <name>Route 39</name>
    <time>2026-08-26T12:00:03.900Z</time>
  </wpt>
  <wpt lat="22.625938082001330" lon="88.436639595448810">
    <name>Route 40</name>
    <time>2026-08-26T12:00:04.000Z</time>
  </wpt>
  <wpt lat="22.625902749610731" lon="88.436718706426504">
    <name>Route 41</name>
    <time>2026-08-26T12:00:04.100Z</time>
  </wpt>
  <wpt lat="22.625867417220128" lon="88.436797817404184">
    <name>Route 42</name>
    <time>2026-08-26T12:00:04.200Z</time>
  </wpt>
  <wpt lat="22.625832084829526" lon="88.436876928381878">
    <name>Route 43</name>
    <time>2026-08-26T12:00:04.300Z</time>
  </wpt>
  <wpt lat="22.625796752438927" lon="88.436956039359558">
    <name>Route 44</name>
    <time>2026-08-26T12:00:04.400Z</time>
  </wpt>
  <wpt lat="22.625761420048327" lon="88.437035150337252">
    <name>Route 45</name>
    <time>2026-08-26T12:00:04.500Z</time>
  </wpt>
  <wpt lat="22.625726087657725" lon="88.437114261314932">
    <name>Route 46</name>
    <time>2026-08-26T12:00:04.600Z</time>
  </wpt>
  <wpt lat="22.625690755267122" lon="88.437193372292626">
    <name>Route 47</name>
    <time>2026-08-26T12:00:04.700Z</time>
  </wpt>
  <wpt lat="22.625655422876523" lon="88.437272483270306">
    <name>Route 48</name>
    <time>2026-08-26T12:00:04.800Z</time>
  </wpt>
  <wpt lat="22.625620090485924" lon="88.437351594248000">
    <name>Route 49</name>
    <time>2026-08-26T12:00:04.900Z</time>
  </wpt>
  <wpt lat="22.625584758095322" lon="88.437430705225680">
    <name>Route 50</name>
    <time>2026-08-26T12:00:05.000Z</time>
  </wpt>
  <wpt lat="22.625549425704719" lon="88.437509816203359">
    <name>Route 51</name>
    <time>2026-08-26T12:00:05.100Z</time>
  </wpt>
  <wpt lat="22.625514093314120" lon="88.437588927181054">
    <name>Route 52</name>
    <time>2026-08-26T12:00:05.200Z</time>
  </wpt>
  <wpt lat="22.625478760923521" lon="88.437668038158733">
    <name>Route 53</name>
    <time>2026-08-26T12:00:05.300Z</time>
  </wpt>
  <wpt lat="22.625443428532918" lon="88.437747149136428">
    <name>Route 54</name>
    <time>2026-08-26T12:00:05.400Z</time>
  </wpt>
  <wpt lat="22.625408096142316" lon="88.437826260114107">
    <name>Route 55</name>
    <time>2026-08-26T12:00:05.500Z</time>
  </wpt>
  <wpt lat="22.625372763751717" lon="88.437905371091801">
    <name>Route 56</name>
    <time>2026-08-26T12:00:05.600Z</time>
  </wpt>
  <wpt lat="22.625337431361118" lon="88.437984482069481">
    <name>Route 57</name>
    <time>2026-08-26T12:00:05.700Z</time>
  </wpt>
  <wpt lat="22.625302098970515" lon="88.438063593047175">
    <name>Route 58</name>
    <time>2026-08-26T12:00:05.800Z</time>
  </wpt>
  <wpt lat="22.625266766579912" lon="88.438142704024855">
    <name>Route 59</name>
    <time>2026-08-26T12:00:05.900Z</time>
  </wpt>
  <wpt lat="22.625231434189313" lon="88.438221815002549">
    <name>Route 60</name>
    <time>2026-08-26T12:00:06.000Z</time>
  </wpt>
  <wpt lat="22.625196101798714" lon="88.438300925980229">
    <name>Route 61</name>
    <time>2026-08-26T12:00:06.100Z</time>
  </wpt>
  <wpt lat="22.625160769408112" lon="88.438380036957923">
    <name>Route 62</name>
    <time>2026-08-26T12:00:06.200Z</time>
  </wpt>
  <wpt lat="22.625125437017509" lon="88.438459147935603">
    <name>Route 63</name>
    <time>2026-08-26T12:00:06.300Z</time>
  </wpt>
  <wpt lat="22.625090104626910" lon="88.438538258913283">
    <name>Route 64</name>
    <time>2026-08-26T12:00:06.400Z</time>
  </wpt>
  <wpt lat="22.625054772236311" lon="88.438617369890977">
    <name>Route 65</name>
    <time>2026-08-26T12:00:06.500Z</time>
  </wpt>
  <wpt lat="22.625019439845708" lon="88.438696480868657">
    <name>Route 66</name>
    <time>2026-08-26T12:00:06.600Z</time>
  </wpt>
  <wpt lat="22.624984107455106" lon="88.438775591846351">
    <name>Route 67</name>
    <time>2026-08-26T12:00:06.700Z</time>
  </wpt>
  <wpt lat="22.624948775064507" lon="88.438854702824031">
    <name>Route 68</name>
    <time>2026-08-26T12:00:06.800Z</time>
  </wpt>
  <wpt lat="22.624913442673908" lon="88.438933813801725">
    <name>Route 69</name>
    <time>2026-08-26T12:00:06.900Z</time>
  </wpt>
  <wpt lat="22.624878110283305" lon="88.439012924779405">
    <name>Route 70</name>
    <time>2026-08-26T12:00:07.000Z</time>
  </wpt>
  <wpt lat="22.624842777892702" lon="88.439092035757099">
    <name>Route 71</name>
    <time>2026-08-26T12:00:07.100Z</time>
  </wpt>
  <wpt lat="22.624807445502103" lon="88.439171146734779">
    <name>Route 72</name>
    <time>2026-08-26T12:00:07.200Z</time>
  </wpt>
  <wpt lat="22.624772113111504" lon="88.439250257712473">
    <name>Route 73</name>
    <time>2026-08-26T12:00:07.300Z</time>
  </wpt>
  <wpt lat="22.624736780720902" lon="88.439329368690153">
    <name>Route 74</name>
    <time>2026-08-26T12:00:07.400Z</time>
  </wpt>
  <wpt lat="22.624701448330299" lon="88.439408479667833">
    <name>Route 75</name>
    <time>2026-08-26T12:00:07.500Z</time>
  </wpt>
  <wpt lat="22.624666115939700" lon="88.439487590645527">
    <name>Route 76</name>
    <time>2026-08-26T12:00:07.600Z</time>
  </wpt>
  <wpt lat="22.624630783549101" lon="88.439566701623207">
    <name>Route 77</name>
    <time>2026-08-26T12:00:07.700Z</time>
  </wpt>
  <wpt lat="22.624595451158498" lon="88.439645812600901">
    <name>Route 78</name>
    <time>2026-08-26T12:00:07.800Z</time>
  </wpt>
  <wpt lat="22.624560118767896" lon="88.439724923578581">
    <name>Route 79</name>
    <time>2026-08-26T12:00:07.900Z</time>
  </wpt>
  <wpt lat="22.624524786377297" lon="88.439804034556275">
    <name>Route 80</name>
    <time>2026-08-26T12:00:08.000Z</time>
  </wpt>
  <wpt lat="22.624489453986698" lon="88.439883145533955">
    <name>Route 81</name>
    <time>2026-08-26T12:00:08.100Z</time>
  </wpt>
  <wpt lat="22.624454121596095" lon="88.439962256511649">
    <name>Route 82</name>
    <time>2026-08-26T12:00:08.200Z</time>
  </wpt>
  <wpt lat="22.624418789205492" lon="88.440041367489329">
    <name>Route 83</name>
    <time>2026-08-26T12:00:08.300Z</time>
  </wpt>
  <wpt lat="22.624383456814893" lon="88.440120478467023">
    <name>Route 84</name>
    <time>2026-08-26T12:00:08.400Z</time>
  </wpt>
  <wpt lat="22.624348124424294" lon="88.440199589444703">
    <name>Route 85</name>
    <time>2026-08-26T12:00:08.500Z</time>
  </wpt>
  <wpt lat="22.624312792033692" lon="88.440278700422397">
    <name>Route 86</name>
    <time>2026-08-26T12:00:08.600Z</time>
  </wpt>
  <wpt lat="22.624277459643089" lon="88.440357811400077">
    <name>Route 87</name>
    <time>2026-08-26T12:00:08.700Z</time>
  </wpt>
  <wpt lat="22.624242127252490" lon="88.440436922377756">
    <name>Route 88</name>
    <time>2026-08-26T12:00:08.800Z</time>
  </wpt>
  <wpt lat="22.624206794861891" lon="88.440516033355451">
    <name>Route 89</name>
    <time>2026-08-26T12:00:08.900Z</time>
  </wpt>
  <wpt lat="22.624171462471288" lon="88.440595144333130">
    <name>Route 90</name>
    <time>2026-08-26T12:00:09.000Z</time>
  </wpt>
  <wpt lat="22.624136130080686" lon="88.440674255310824">
    <name>Route 91</name>
    <time>2026-08-26T12:00:09.100Z</time>
  </wpt>
  <wpt lat="22.624100797690087" lon="88.440753366288504">
    <name>Route 92</name>
    <time>2026-08-26T12:00:09.200Z</time>
  </wpt>
  <wpt lat="22.624065465299488" lon="88.440832477266198">
    <name>Route 93</name>
    <time>2026-08-26T12:00:09.300Z</time>
  </wpt>
  <wpt lat="22.624030132908885" lon="88.440911588243878">
    <name>Route 94</name>
    <time>2026-08-26T12:00:09.400Z</time>
  </wpt>
  <wpt lat="22.623994800518282" lon="88.440990699221572">
    <name>Route 95</name>
    <time>2026-08-26T12:00:09.500Z</time>
  </wpt>
  <wpt lat="22.623959468127683" lon="88.441069810199252">
    <name>Route 96</name>
    <time>2026-08-26T12:00:09.600Z</time>
  </wpt>
  <wpt lat="22.623924135737084" lon="88.441148921176946">
    <name>Route 97</name>
    <time>2026-08-26T12:00:09.700Z</time>
  </wpt>
  <wpt lat="22.623888803346482" lon="88.441228032154626">
    <name>Route 98</name>
    <time>2026-08-26T12:00:09.800Z</time>
  </wpt>
  <wpt lat="22.623853470955879" lon="88.441307143132320">
    <name>Route 99</name>
    <time>2026-08-26T12:00:09.900Z</time>
  </wpt>
  <wpt lat="22.623818138565280" lon="88.441386254110000">
    <name>Point B</name>
    <time>2026-08-26T12:00:10.000Z</time>
  </wpt>
</gpx>
