<?xml version="1.0" encoding="UTF-8"?>
<gpx version="1.1" creator="Xcode">
  <!-- Straight-line A to B route; 101 waypoints over 10 seconds. -->
  <wpt lat="22.623818138565280" lon="88.441386254110000">
    <name>Point A</name>
    <time>2026-08-26T17:30:00.000Z</time>
  </wpt>
  <wpt lat="22.623719487179628" lon="88.441276391568906">
    <name>Route 1</name>
    <time>2026-08-26T17:30:00.100Z</time>
  </wpt>
  <wpt lat="22.623620835793975" lon="88.441166529027797">
    <name>Route 2</name>
    <time>2026-08-26T17:30:00.200Z</time>
  </wpt>
  <wpt lat="22.623522184408323" lon="88.441056666486702">
    <name>Route 3</name>
    <time>2026-08-26T17:30:00.300Z</time>
  </wpt>
  <wpt lat="22.623423533022670" lon="88.440946803945607">
    <name>Route 4</name>
    <time>2026-08-26T17:30:00.400Z</time>
  </wpt>
  <wpt lat="22.623324881637018" lon="88.440836941404498">
    <name>Route 5</name>
    <time>2026-08-26T17:30:00.500Z</time>
  </wpt>
  <wpt lat="22.623226230251362" lon="88.440727078863404">
    <name>Route 6</name>
    <time>2026-08-26T17:30:00.600Z</time>
  </wpt>
  <wpt lat="22.623127578865709" lon="88.440617216322295">
    <name>Route 7</name>
    <time>2026-08-26T17:30:00.700Z</time>
  </wpt>
  <wpt lat="22.623028927480057" lon="88.440507353781200">
    <name>Route 8</name>
    <time>2026-08-26T17:30:00.800Z</time>
  </wpt>
  <wpt lat="22.622930276094404" lon="88.440397491240105">
    <name>Route 9</name>
    <time>2026-08-26T17:30:00.900Z</time>
  </wpt>
  <wpt lat="22.622831624708752" lon="88.440287628698997">
    <name>Route 10</name>
    <time>2026-08-26T17:30:01.000Z</time>
  </wpt>
  <wpt lat="22.622732973323100" lon="88.440177766157902">
    <name>Route 11</name>
    <time>2026-08-26T17:30:01.100Z</time>
  </wpt>
  <wpt lat="22.622634321937447" lon="88.440067903616807">
    <name>Route 12</name>
    <time>2026-08-26T17:30:01.200Z</time>
  </wpt>
  <wpt lat="22.622535670551795" lon="88.439958041075698">
    <name>Route 13</name>
    <time>2026-08-26T17:30:01.300Z</time>
  </wpt>
  <wpt lat="22.622437019166142" lon="88.439848178534604">
    <name>Route 14</name>
    <time>2026-08-26T17:30:01.400Z</time>
  </wpt>
  <wpt lat="22.622338367780486" lon="88.439738315993495">
    <name>Route 15</name>
    <time>2026-08-26T17:30:01.500Z</time>
  </wpt>
  <wpt lat="22.622239716394834" lon="88.439628453452400">
    <name>Route 16</name>
    <time>2026-08-26T17:30:01.600Z</time>
  </wpt>
  <wpt lat="22.622141065009181" lon="88.439518590911305">
    <name>Route 17</name>
    <time>2026-08-26T17:30:01.700Z</time>
  </wpt>
  <wpt lat="22.622042413623529" lon="88.439408728370196">
    <name>Route 18</name>
    <time>2026-08-26T17:30:01.800Z</time>
  </wpt>
  <wpt lat="22.621943762237876" lon="88.439298865829102">
    <name>Route 19</name>
    <time>2026-08-26T17:30:01.900Z</time>
  </wpt>
  <wpt lat="22.621845110852224" lon="88.439189003288007">
    <name>Route 20</name>
    <time>2026-08-26T17:30:02.000Z</time>
  </wpt>
  <wpt lat="22.621746459466571" lon="88.439079140746898">
    <name>Route 21</name>
    <time>2026-08-26T17:30:02.100Z</time>
  </wpt>
  <wpt lat="22.621647808080919" lon="88.438969278205803">
    <name>Route 22</name>
    <time>2026-08-26T17:30:02.200Z</time>
  </wpt>
  <wpt lat="22.621549156695266" lon="88.438859415664695">
    <name>Route 23</name>
    <time>2026-08-26T17:30:02.300Z</time>
  </wpt>
  <wpt lat="22.621450505309614" lon="88.438749553123600">
    <name>Route 24</name>
    <time>2026-08-26T17:30:02.400Z</time>
  </wpt>
  <wpt lat="22.621351853923962" lon="88.438639690582505">
    <name>Route 25</name>
    <time>2026-08-26T17:30:02.500Z</time>
  </wpt>
  <wpt lat="22.621253202538306" lon="88.438529828041396">
    <name>Route 26</name>
    <time>2026-08-26T17:30:02.600Z</time>
  </wpt>
  <wpt lat="22.621154551152653" lon="88.438419965500302">
    <name>Route 27</name>
    <time>2026-08-26T17:30:02.700Z</time>
  </wpt>
  <wpt lat="22.621055899767001" lon="88.438310102959207">
    <name>Route 28</name>
    <time>2026-08-26T17:30:02.800Z</time>
  </wpt>
  <wpt lat="22.620957248381348" lon="88.438200240418098">
    <name>Route 29</name>
    <time>2026-08-26T17:30:02.900Z</time>
  </wpt>
  <wpt lat="22.620858596995696" lon="88.438090377877003">
    <name>Route 30</name>
    <time>2026-08-26T17:30:03.000Z</time>
  </wpt>
  <wpt lat="22.620759945610043" lon="88.437980515335909">
    <name>Route 31</name>
    <time>2026-08-26T17:30:03.100Z</time>
  </wpt>
  <wpt lat="22.620661294224391" lon="88.437870652794800">
    <name>Route 32</name>
    <time>2026-08-26T17:30:03.200Z</time>
  </wpt>
  <wpt lat="22.620562642838738" lon="88.437760790253705">
    <name>Route 33</name>
    <time>2026-08-26T17:30:03.300Z</time>
  </wpt>
  <wpt lat="22.620463991453086" lon="88.437650927712596">
    <name>Route 34</name>
    <time>2026-08-26T17:30:03.400Z</time>
  </wpt>
  <wpt lat="22.620365340067433" lon="88.437541065171501">
    <name>Route 35</name>
    <time>2026-08-26T17:30:03.500Z</time>
  </wpt>
  <wpt lat="22.620266688681777" lon="88.437431202630407">
    <name>Route 36</name>
    <time>2026-08-26T17:30:03.600Z</time>
  </wpt>
  <wpt lat="22.620168037296125" lon="88.437321340089298">
    <name>Route 37</name>
    <time>2026-08-26T17:30:03.700Z</time>
  </wpt>
  <wpt lat="22.620069385910472" lon="88.437211477548203">
    <name>Route 38</name>
    <time>2026-08-26T17:30:03.800Z</time>
  </wpt>
  <wpt lat="22.619970734524820" lon="88.437101615007109">
    <name>Route 39</name>
    <time>2026-08-26T17:30:03.900Z</time>
  </wpt>
  <wpt lat="22.619872083139168" lon="88.436991752466000">
    <name>Route 40</name>
    <time>2026-08-26T17:30:04.000Z</time>
  </wpt>
  <wpt lat="22.619773431753515" lon="88.436881889924905">
    <name>Route 41</name>
    <time>2026-08-26T17:30:04.100Z</time>
  </wpt>
  <wpt lat="22.619674780367863" lon="88.436772027383796">
    <name>Route 42</name>
    <time>2026-08-26T17:30:04.200Z</time>
  </wpt>
  <wpt lat="22.619576128982210" lon="88.436662164842701">
    <name>Route 43</name>
    <time>2026-08-26T17:30:04.300Z</time>
  </wpt>
  <wpt lat="22.619477477596558" lon="88.436552302301607">
    <name>Route 44</name>
    <time>2026-08-26T17:30:04.400Z</time>
  </wpt>
  <wpt lat="22.619378826210905" lon="88.436442439760498">
    <name>Route 45</name>
    <time>2026-08-26T17:30:04.500Z</time>
  </wpt>
  <wpt lat="22.619280174825249" lon="88.436332577219403">
    <name>Route 46</name>
    <time>2026-08-26T17:30:04.600Z</time>
  </wpt>
  <wpt lat="22.619181523439597" lon="88.436222714678308">
    <name>Route 47</name>
    <time>2026-08-26T17:30:04.700Z</time>
  </wpt>
  <wpt lat="22.619082872053944" lon="88.436112852137200">
    <name>Route 48</name>
    <time>2026-08-26T17:30:04.800Z</time>
  </wpt>
  <wpt lat="22.618984220668292" lon="88.436002989596105">
    <name>Route 49</name>
    <time>2026-08-26T17:30:04.900Z</time>
  </wpt>
  <wpt lat="22.618885569282639" lon="88.435893127055010">
    <name>Route 50</name>
    <time>2026-08-26T17:30:05.000Z</time>
  </wpt>
  <wpt lat="22.618786917896987" lon="88.435783264513901">
    <name>Route 51</name>
    <time>2026-08-26T17:30:05.100Z</time>
  </wpt>
  <wpt lat="22.618688266511334" lon="88.435673401972807">
    <name>Route 52</name>
    <time>2026-08-26T17:30:05.200Z</time>
  </wpt>
  <wpt lat="22.618589615125682" lon="88.435563539431698">
    <name>Route 53</name>
    <time>2026-08-26T17:30:05.300Z</time>
  </wpt>
  <wpt lat="22.618490963740030" lon="88.435453676890603">
    <name>Route 54</name>
    <time>2026-08-26T17:30:05.400Z</time>
  </wpt>
  <wpt lat="22.618392312354374" lon="88.435343814349508">
    <name>Route 55</name>
    <time>2026-08-26T17:30:05.500Z</time>
  </wpt>
  <wpt lat="22.618293660968721" lon="88.435233951808399">
    <name>Route 56</name>
    <time>2026-08-26T17:30:05.600Z</time>
  </wpt>
  <wpt lat="22.618195009583069" lon="88.435124089267305">
    <name>Route 57</name>
    <time>2026-08-26T17:30:05.700Z</time>
  </wpt>
  <wpt lat="22.618096358197416" lon="88.435014226726210">
    <name>Route 58</name>
    <time>2026-08-26T17:30:05.800Z</time>
  </wpt>
  <wpt lat="22.617997706811764" lon="88.434904364185101">
    <name>Route 59</name>
    <time>2026-08-26T17:30:05.900Z</time>
  </wpt>
  <wpt lat="22.617899055426111" lon="88.434794501644006">
    <name>Route 60</name>
    <time>2026-08-26T17:30:06.000Z</time>
  </wpt>
  <wpt lat="22.617800404040459" lon="88.434684639102898">
    <name>Route 61</name>
    <time>2026-08-26T17:30:06.100Z</time>
  </wpt>
  <wpt lat="22.617701752654806" lon="88.434574776561803">
    <name>Route 62</name>
    <time>2026-08-26T17:30:06.200Z</time>
  </wpt>
  <wpt lat="22.617603101269154" lon="88.434464914020708">
    <name>Route 63</name>
    <time>2026-08-26T17:30:06.300Z</time>
  </wpt>
  <wpt lat="22.617504449883501" lon="88.434355051479599">
    <name>Route 64</name>
    <time>2026-08-26T17:30:06.400Z</time>
  </wpt>
  <wpt lat="22.617405798497849" lon="88.434245188938505">
    <name>Route 65</name>
    <time>2026-08-26T17:30:06.500Z</time>
  </wpt>
  <wpt lat="22.617307147112193" lon="88.434135326397410">
    <name>Route 66</name>
    <time>2026-08-26T17:30:06.600Z</time>
  </wpt>
  <wpt lat="22.617208495726540" lon="88.434025463856301">
    <name>Route 67</name>
    <time>2026-08-26T17:30:06.700Z</time>
  </wpt>
  <wpt lat="22.617109844340888" lon="88.433915601315206">
    <name>Route 68</name>
    <time>2026-08-26T17:30:06.800Z</time>
  </wpt>
  <wpt lat="22.617011192955236" lon="88.433805738774097">
    <name>Route 69</name>
    <time>2026-08-26T17:30:06.900Z</time>
  </wpt>
  <wpt lat="22.616912541569583" lon="88.433695876233003">
    <name>Route 70</name>
    <time>2026-08-26T17:30:07.000Z</time>
  </wpt>
  <wpt lat="22.616813890183931" lon="88.433586013691908">
    <name>Route 71</name>
    <time>2026-08-26T17:30:07.100Z</time>
  </wpt>
  <wpt lat="22.616715238798278" lon="88.433476151150799">
    <name>Route 72</name>
    <time>2026-08-26T17:30:07.200Z</time>
  </wpt>
  <wpt lat="22.616616587412626" lon="88.433366288609704">
    <name>Route 73</name>
    <time>2026-08-26T17:30:07.300Z</time>
  </wpt>
  <wpt lat="22.616517936026973" lon="88.433256426068610">
    <name>Route 74</name>
    <time>2026-08-26T17:30:07.400Z</time>
  </wpt>
  <wpt lat="22.616419284641317" lon="88.433146563527501">
    <name>Route 75</name>
    <time>2026-08-26T17:30:07.500Z</time>
  </wpt>
  <wpt lat="22.616320633255665" lon="88.433036700986406">
    <name>Route 76</name>
    <time>2026-08-26T17:30:07.600Z</time>
  </wpt>
  <wpt lat="22.616221981870012" lon="88.432926838445312">
    <name>Route 77</name>
    <time>2026-08-26T17:30:07.700Z</time>
  </wpt>
  <wpt lat="22.616123330484360" lon="88.432816975904203">
    <name>Route 78</name>
    <time>2026-08-26T17:30:07.800Z</time>
  </wpt>
  <wpt lat="22.616024679098707" lon="88.432707113363108">
    <name>Route 79</name>
    <time>2026-08-26T17:30:07.900Z</time>
  </wpt>
  <wpt lat="22.615926027713055" lon="88.432597250821999">
    <name>Route 80</name>
    <time>2026-08-26T17:30:08.000Z</time>
  </wpt>
  <wpt lat="22.615827376327402" lon="88.432487388280904">
    <name>Route 81</name>
    <time>2026-08-26T17:30:08.100Z</time>
  </wpt>
  <wpt lat="22.615728724941750" lon="88.432377525739810">
    <name>Route 82</name>
    <time>2026-08-26T17:30:08.200Z</time>
  </wpt>
  <wpt lat="22.615630073556098" lon="88.432267663198701">
    <name>Route 83</name>
    <time>2026-08-26T17:30:08.300Z</time>
  </wpt>
  <wpt lat="22.615531422170445" lon="88.432157800657606">
    <name>Route 84</name>
    <time>2026-08-26T17:30:08.400Z</time>
  </wpt>
  <wpt lat="22.615432770784793" lon="88.432047938116511">
    <name>Route 85</name>
    <time>2026-08-26T17:30:08.500Z</time>
  </wpt>
  <wpt lat="22.615334119399137" lon="88.431938075575403">
    <name>Route 86</name>
    <time>2026-08-26T17:30:08.600Z</time>
  </wpt>
  <wpt lat="22.615235468013484" lon="88.431828213034308">
    <name>Route 87</name>
    <time>2026-08-26T17:30:08.700Z</time>
  </wpt>
  <wpt lat="22.615136816627832" lon="88.431718350493199">
    <name>Route 88</name>
    <time>2026-08-26T17:30:08.800Z</time>
  </wpt>
  <wpt lat="22.615038165242179" lon="88.431608487952104">
    <name>Route 89</name>
    <time>2026-08-26T17:30:08.900Z</time>
  </wpt>
  <wpt lat="22.614939513856527" lon="88.431498625411010">
    <name>Route 90</name>
    <time>2026-08-26T17:30:09.000Z</time>
  </wpt>
  <wpt lat="22.614840862470874" lon="88.431388762869901">
    <name>Route 91</name>
    <time>2026-08-26T17:30:09.100Z</time>
  </wpt>
  <wpt lat="22.614742211085222" lon="88.431278900328806">
    <name>Route 92</name>
    <time>2026-08-26T17:30:09.200Z</time>
  </wpt>
  <wpt lat="22.614643559699569" lon="88.431169037787711">
    <name>Route 93</name>
    <time>2026-08-26T17:30:09.300Z</time>
  </wpt>
  <wpt lat="22.614544908313917" lon="88.431059175246602">
    <name>Route 94</name>
    <time>2026-08-26T17:30:09.400Z</time>
  </wpt>
  <wpt lat="22.614446256928261" lon="88.430949312705508">
    <name>Route 95</name>
    <time>2026-08-26T17:30:09.500Z</time>
  </wpt>
  <wpt lat="22.614347605542608" lon="88.430839450164399">
    <name>Route 96</name>
    <time>2026-08-26T17:30:09.600Z</time>
  </wpt>
  <wpt lat="22.614248954156956" lon="88.430729587623304">
    <name>Route 97</name>
    <time>2026-08-26T17:30:09.700Z</time>
  </wpt>
  <wpt lat="22.614150302771304" lon="88.430619725082209">
    <name>Route 98</name>
    <time>2026-08-26T17:30:09.800Z</time>
  </wpt>
  <wpt lat="22.614051651385651" lon="88.430509862541101">
    <name>Route 99</name>
    <time>2026-08-26T17:30:09.900Z</time>
  </wpt>
  <wpt lat="22.613952999999999" lon="88.430400000000006">
    <name>Point B</name>
    <time>2026-08-26T17:30:10.000Z</time>
  </wpt>
</gpx>
